NORAD_CAT_ID,OBJECT_NAME,OBJECT_TYPE,EPOCH,MEAN_MOTION,ECCENTRICITY,INCLINATION,RA_OF_ASC_NODE,ARG_OF_PERICENTER,MEAN_ANOMALY,BSTAR,MEAN_MOTION_DOT,MEAN_MOTION_DDOT,TLE_LINE0,TLE_LINE1,TLE_LINE2,SEMIMAJOR_AXIS,PERIOD,APOGEE,PERIGEE,DECAYED
50818.0,STARLINK-3336,PAYLOAD,2022-05-16 14:00:01,15.08856109,0.0002018,53.2154,303.0185,35.5312,231.8643,-0.0021593,-0.00034505,0.0,0 STARLINK-3336,1 50818U 22001R   22136.58334491 -.00034505  00000-0 -21593-2 0  9999,2 50818  53.2154 303.0185 0002018  35.5312 231.8643 15.08856109  1308,6917.831,95.437,541.092,538.3,0.0
50818.0,STARLINK-3336,PAYLOAD,2022-05-16 22:00:00,15.08813034,0.0002203,53.2154,301.5233,30.5666,248.4388,0.0020064,0.00031765,0.0,0 STARLINK-3336,1 50818U 22001R   22136.91667824  .00031765  00000-0  20064-2 0  9990,2 50818  53.2154 301.5233 0002203  30.5666 248.4388 15.08813034 21423,6917.9630000000025,95.439,541.352,538.304,0.0
50818.0,STARLINK-3336,PAYLOAD,2022-05-17 14:00:01,15.08874299,0.0002022,53.2161,298.5291,32.6156,269.61400000000003,-0.0034597,-0.00054982,0.0,0 STARLINK-3336,1 50818U 22001R   22137.58335648 -.00054982  00000-0 -34597-2 0  9994,2 50818  53.2161 298.5291 0002022  32.6156 269.6140 15.08874299  1302,6917.776,95.435,541.039,538.242,0.0
50818.0,STARLINK-3336,PAYLOAD,2022-05-17 20:00:01,15.08821386,0.0002217,53.2161,297.408,28.9185,191.9755,0.0023929,0.00037982,0.0,0 STARLINK-3336,1 50818U 22001R   22137.83334491  .00037982  00000-0  23929-2 0  9993,2 50818  53.2161 297.4080 0002217  28.9185 191.9755 15.08821386 21559,6917.937,95.439,541.336,538.269,0.0
50818.0,STARLINK-3336,PAYLOAD,2022-05-17 22:00:01,15.08821572,0.0002199,53.2159,297.0338,27.7437,286.1108,0.00282,0.00044856,0.0,0 STARLINK-3336,1 50818U 22001R   22137.91668981  .00044856  00000-0  28200-2 0  9991,2 50818  53.2159 297.0338 0002199  27.7437 286.1108 15.08821572  1301,6917.937,95.439,541.323,538.28,0.0
50818.0,STARLINK-3336,PAYLOAD,2022-05-18 12:00:00,15.08848309,0.0002026,53.2165,294.4137,34.6787,209.3979,0.00043214,6.598e-05,0.0,0 STARLINK-3336,1 50818U 22001R   22138.50001157  .00006598  00000-0  43214-3 0  9997,2 50818  53.2165 294.4137 0002026  34.6787 209.3979 15.08848309 21661,6917.855,95.437,541.122,538.318,0.0
50818.0,STARLINK-3336,PAYLOAD,2022-05-18 14:00:01,15.0886603,0.000208,53.2164,294.04,32.5668,304.4069,-0.0021704,-0.0003469,0.0,0 STARLINK-3336,1 50818U 22001R   22138.58334491 -.00034690  00000-0 -21704-2 0  9990,2 50818  53.2164 294.0400 0002080  32.5668 304.4069 15.08866030  1301,6917.801,95.436,541.105,538.227,0.0
50818.0,STARLINK-3336,PAYLOAD,2022-05-18 22:00:00,15.0883709,0.0002248,53.216,292.5446,28.8131,319.7749,-0.0015538,-0.00024931,0.0,0 STARLINK-3336,1 50818U 22001R   22138.91667824 -.00024931  00000-0 -15538-2 0  9991,2 50818  53.2160 292.5446 0002248  28.8131 319.7749 15.08837090  1307,6917.889,95.438,541.309,538.1990000000002,0.0
50818.0,STARLINK-3336,PAYLOAD,2022-05-19 06:00:00,15.08786463,0.0002057,53.2161,291.0466,34.1838,326.0006,0.0037656,0.00060065,0.0,0 STARLINK-3336,1 50818U 22001R   22139.25001157  .00060065  00000-0  37656-2 0  9991,2 50818  53.2161 291.0466 0002057  34.1838 326.0006 15.08786463 21773,6918.044,95.441,541.332,538.486,0.0
50818.0,STARLINK-3336,PAYLOAD,2022-05-19 14:00:01,15.08839372,0.0002143,53.2162,289.5513,33.7499,338.0440000000001,-0.00095019,-0.00015379,0.0,0 STARLINK-3336,1 50818U 22001R   22139.58335648 -.00015379  00000-0 -95019-3 0  9990,2 50818  53.2162 289.5513 0002143  33.7499 338.0440 15.08839372  1303,6917.882,95.438,541.23,538.265,0.0
50818.0,STARLINK-3336,PAYLOAD,2022-05-19 22:00:00,15.08833808,0.0002254,53.2156,288.0558,28.8875,354.4411,0.00032235,4.845e-05,0.0,0 STARLINK-3336,1 50818U 22001R   22139.91667824  .00004845  00000-0  32235-3 0  9996,2 50818  53.2156 288.0558 0002254  28.8875 354.4411 15.08833808 21877,6917.899,95.438,541.3240000000002,538.205,0.0
50818.0,STARLINK-3336,PAYLOAD,2022-05-20 14:00:01,15.08876888,0.0002112,53.2155,285.0626,30.4539,16.0534,-0.0041103,-0.0006518,0.0,0 STARLINK-3336,1 50818U 22001R   22140.58334491 -.00065180  00000-0 -41103-2 0  9996,2 50818  53.2155 285.0626 0002112  30.4539  16.0534 15.08876888  1306,6917.768,95.435,541.094,538.172,0.0
50818.0,STARLINK-3336,PAYLOAD,2022-05-20 22:00:00,15.08836081,0.0002264,53.215,283.5664,26.8004,31.3181,-0.00097665,-0.00015797,0.0,0 STARLINK-3336,1 50818U 22001R   22140.91667824 -.00015797  00000-0 -97665-3 0  9996,2 50818  53.2150 283.5664 0002264  26.8004  31.3181 15.08836081  1309,6917.892,95.438,541.3240000000002,538.191,0.0
50818.0,STARLINK-3336,PAYLOAD,2022-05-21 06:00:00,15.08807758,0.0002052,53.2148,282.0687,32.6725,37.05,0.0038051,0.00060739,0.0,0 STARLINK-3336,1 50818U 22001R   22141.25001157  .00060739  00000-0  38051-2 0  9992,2 50818  53.2148 282.0687 0002052  32.6725  37.0500 15.08807758 22079,6917.979,95.44,541.264,538.424,0.0
50818.0,STARLINK-3336,PAYLOAD,2022-05-21 14:00:01,15.08859709,0.0002181,53.2148,280.5737,31.0877,50.277,-0.0034586999999999,-0.00054945,0.0,0 STARLINK-3336,1 50818U 22001R   22141.58335648 -.00054945  00000-0 -34587-2 0  9997,2 50818  53.2148 280.5737 0002181  31.0877  50.2770 15.08859709  1304,6917.82,95.436,541.194,538.1759999999998,0.0
50818.0,STARLINK-3336,PAYLOAD,2022-05-21 22:00:00,15.0884469,0.0002337,53.2143,279.0777,28.3126,64.5897,-0.0012392999999999,-0.00019961,0.0,0 STARLINK-3336,1 50818U 22001R   22141.91667824 -.00019961  00000-0 -12393-2 0  9998,2 50818  53.2143 279.0777 0002337  28.3126  64.5897 15.08844690 22174,6917.866,95.437,541.3480000000002,538.114,0.0
50818.0,STARLINK-3336,PAYLOAD,2022-05-22 14:00:01,15.08847129,0.0002329,53.2144,276.0846,33.5679,82.4829,-0.0025133,-0.00040075,0.0,0 STARLINK-3336,1 50818U 22001R   22142.58334491 -.00040075  00000-0 -25133-2 0  9999,2 50818  53.2144 276.0846 0002329  33.5679  82.4829 15.08847129  1307,6917.859,95.437,541.335,538.112,0.0
50818.0,STARLINK-3336,PAYLOAD,2022-05-22 22:00:01,15.08841328,0.0002397,53.2141,274.5883,28.2939,99.4211,-0.0011335999999999,-0.00018286,0.0,0 STARLINK-3336,1 50818U 22001R   22142.91668981 -.00018286  00000-0 -11336-2 0  9999,2 50818  53.2141 274.5883 0002397  28.2939  99.4211 15.08841328 22326,6917.876,95.437,541.4,538.0830000000002,0.0
50818.0,STARLINK-3336,PAYLOAD,2022-05-23 14:00:01,15.08849018,0.0002332,53.2145,271.5951,29.215,121.6366,-0.0024818,-0.00039581,0.0,0 STARLINK-3336,1 50818U 22001R   22143.58334491 -.00039581  00000-0 -24818-2 0  9999,2 50818  53.2145 271.5951 0002332  29.2150 121.6366 15.08849018  1306,6917.853,95.437,541.331,538.105,0.0
50818.0,STARLINK-3336,PAYLOAD,2022-05-23 16:00:00,15.08840793,0.0002389,53.2145,271.2213,28.2097,215.5417,-0.0018884,-0.00030219,0.0,0 STARLINK-3336,1 50818U 22001R   22143.66667824 -.00030219  00000-0 -18884-2 0  9992,2 50818  53.2145 271.2213 0002389  28.2097 215.5417 15.08840793 22433,6917.878000000002,95.438,541.396,538.09,0.0
50818.0,STARLINK-3336,PAYLOAD,2022-05-23 22:00:01,15.08825446,0.0002404,53.2144,270.0986,25.8519,136.6571,0.00096255,0.00015058,0.0,0 STARLINK-3336,1 50818U 22001R   22143.91668981  .00015058  00000-0  96255-3 0  9996,2 50818  53.2144 270.0986 0002404  25.8519 136.6571 15.08825446  1301,6917.925,95.438,541.453,538.127,0.0
50818.0,STARLINK-3336,PAYLOAD,2022-05-24 06:00:02,15.08816274,0.0002237,53.2147,268.6005,30.2699,143.82299999999995,0.00063103,9.763e-05,0.0,0 STARLINK-3336,1 50818U 22001R   22144.25002315  .00009763  00000-0  63103-3 0  9999,2 50818  53.2147 268.6005 0002237  30.2699 143.8230 15.08816274 22520,6917.953,95.439,541.365,538.27,0.0
50818.0,STARLINK-3336,PAYLOAD,2022-05-24 13:10:52,15.08829886,0.000236,53.2175,267.258,35.357,324.7579,8.0833e-05,9.98e-06,0.0,0 STARLINK-3336,1 50818U 22001R   22144.54921755  .00000998  00000-0  80833-4 0  9990,2 50818  53.2175 267.2580 0002360  35.3570 324.7579 15.08829886 21297,6917.911,95.438,541.409,538.144,0.0
50818.0,STARLINK-3336,PAYLOAD,2022-05-24 22:00:00,15.08834385,0.0002466,53.2148,265.6092,27.6068,169.5614,-0.0020644,-0.0003299,0.0,0 STARLINK-3336,1 50818U 22001R   22144.91667824 -.00032990  00000-0 -20644-2 0  9996,2 50818  53.2148 265.6092 0002466  27.6068 169.5614 15.08834385  1305,6917.898,95.438,541.469,538.057,0.0
50818.0,STARLINK-3336,PAYLOAD,2022-05-25 06:00:00,15.08797107,0.000224,53.2152,264.1112,30.2765,178.4685,0.0032918,0.0005242999999999,0.0,0 STARLINK-3336,1 50818U 22001R   22145.25001157  .00052430  00000-0  32918-2 0  9991,2 50818  53.2152 264.1112 0002240  30.2765 178.4685 15.08797107 22671,6918.011,95.44,541.4259999999998,538.327,0.0
50818.0,STARLINK-3336,PAYLOAD,2022-05-25 14:00:01,15.0883223,0.0002451,53.2153,262.6164,28.6749,191.6379,9.8628e-05,1.281e-05,0.0,0 STARLINK-3336,1 50818U 22001R   22145.58334491  .00001281  00000-0  98628-4 0  9997,2 50818  53.2153 262.6164 0002451  28.6749 191.6379 15.08832230  1300,6917.904,95.438,541.465,538.0740000000002,0.0
50818.0,STARLINK-3336,PAYLOAD,2022-05-25 19:23:12,15.08835893,0.0002255,53.2163,261.6073,33.6078,326.5057,-4.0768e-05,-9.37e-06,0.0,0 STARLINK-3336,1 50818U 22001R   22145.80778344 -.00000937  00000-0 -40768-4 0  9992,2 50818  53.2163 261.6073 0002255  33.6078 326.5057 15.08835893 21483,6917.893,95.438,541.318,538.198,0.0
50818.0,STARLINK-3336,PAYLOAD,2022-05-25 22:00:00,15.08868884,0.0002423,53.2152,261.1196,27.0449,204.8511,-0.0030797,-0.0004900999999999,0.0,0 STARLINK-3336,1 50818U 22001R   22145.91667824 -.00049010  00000-0 -30797-2 0  9998,2 50818  53.2152 261.1196 0002423  27.0449 204.8511 15.08868884 22770,6917.792,95.436,541.3330000000002,537.981,0.0
50818.0,STARLINK-3336,PAYLOAD,2022-05-26 12:52:27,15.08829599,0.000236,53.2159,258.3371,28.4235,331.6886,7.3135e-05,8.76e-06,0.0,0 STARLINK-3336,1 50818U 22001R   22146.53642788  .00000876  00000-0  73135-4 0  9999,2 50818  53.2159 258.3371 0002360  28.4235 331.6886 15.08829599 22873,6917.9119999999975,95.438,541.41,538.145,0.0
